#cP2012 10 21  0  0  0.00000000      96 ORBIT IGb08 HLM  IGS
## 1711      0.00000000   900.00000000 56221 0.0000000000000
+   32   G01G02G03G04G05G06G07G08G09G10G11G12G13G14G15G16G17
+        G18G19G20G21G22G23G24G25G26G27G28G29G30G31G32  0  0
+          0  0  0  0  0  0  0  0  0  0  0  0  0  0  0  0  0
+          0  0  0  0  0  0  0  0  0  0  0  0  0  0  0  0  0
+          0  0  0  0  0  0  0  0  0  0  0  0  0  0  0  0  0
++         2  2  2  2  2  2  2  2  2  2  2  2  2  2  2  2  2
++         2  2  2  2  2  2  4  2  2  0  2  2  2  2  2  0  0
++         0  0  0  0  0  0  0  0  0  0  0  0  0  0  0  0  0
++         0  0  0  0  0  0  0  0  0  0  0  0  0  0  0  0  0
++         0  0  0  0  0  0  0  0  0  0  0  0  0  0  0  0  0
%c G  cc GPS ccc cccc cccc cccc cccc ccccc ccccc ccccc ccccc
%c cc cc ccc ccc cccc cccc cccc cccc ccccc ccccc ccccc ccccc
%f  1.2500000  1.025000000  0.00000000000  0.000000000000000
%f  0.0000000  0.000000000  0.00000000000  0.000000000000000
%i    0    0    0    0      0      0      0      0         0
%i    0    0    0    0      0      0      0      0         0
/* FINAL ORBIT COMBINATION FROM WEIGHTED AVERAGE OF:        
/* cod cof emr esa gfz grg jpl mit ngs sio                  
/* REFERENCED TO IGS TIME (IGST) AND TO WEIGHTED MEAN POLE: 
/* PCV:IGS08_1711 OL/AL:FES2004  NONE     Y  ORB:CMB CLK:CMB
*  2012 10 21 15  0  0.00000000
PG01  13739.628192 -12985.129203  18613.280756    278.784541  6  5  5 110       
PG02 -14071.602437 -10833.000470 -19742.043229    406.597676  6  5  6 102       
PG03  24829.995203   9054.098532   3236.125994    117.578394  4  6  3 109       
PG04  -7283.176955 -22746.957487 -11561.496399     22.747032  6  5  6 113       
PG05 -21943.975693   -912.100993 -15059.676310   -361.077805  5  5  4 115       
PG06  23065.603211  13514.341549   -419.608601    478.979638  5  6  2 102       
PG07   6960.023236 -24292.013864  -7653.100112    136.063409  8  9  4 107       
PG08    467.341122 -25652.844689   5591.547334      2.490366  5  3  4  86       
PG09 -13982.293069   8417.736843  20422.196173    193.976070  5  5  5 117       
PG10  -7138.551552 -13965.468846 -21705.682538    -55.941191  5  5  6 144       
PG11  15255.411810  -6863.462206  20187.128440   -315.073590  5  5  4  94       
PG12 -23761.341777  11622.075217   -535.071701     97.366029  7  5  4 118       
PG13   6219.119392 -13745.655823 -21980.587149    172.839726  8  7  6  97       
PG14  10679.556829  20016.931586  14127.060962    215.271884  5  4  7 102       
PG15 -21891.386153   -592.060681  15181.115801    -97.798875  6  6  5 104       
PG16  21836.459678   1349.592251 -15287.106212   -248.309302  4  7  4 106       
PG17 -11468.648962 -19859.338147  13793.062942     85.886477  6  5  6  84       
PG18  -9732.996179  18600.481489  16444.555602    220.764941  7  4  4 121       
PG19  22128.911266   4940.673685  14079.025173   -314.946446  4  4  5 119       
PG20  22089.504056 -14519.996647  -2286.164144     71.126785  7  6  6 116       
PG21  -4235.370080  25573.275445  -3682.869169   -257.273446  6  7  4  87       
PG22   4606.676664  15515.550246  21237.704096    149.779140  5  4  5 107       
PG23  17272.756786  -4998.115802 -19610.708228    152.100041  8  8  5  99       
PG24  12819.849831 -16078.514832 -17181.150093      1.981874 13 15 10 105       
PG25 -16242.797789  17425.279594 -11717.972615     47.460510  3  7  6 114       
PG26 -22532.041222 -12997.910353   5596.847833   -238.408830  5  6  7  83       
PG27   9943.329179  11603.176775 -21878.352294 999999.999999
PG28   -159.660474 -15893.183575  21808.964695    197.118085  4  5  2 113       
PG29  -8513.198000  12500.715140 -21784.618640    368.547683  5  7  8 118       
PG30  13723.655450   8853.885238 -21300.581841   -354.590089  6  7  2  91       
PG31   7889.749475  20806.264233 -14119.311049    282.041114  7  7  7  56       
PG32  25047.350006  -5326.152927   6144.543285   -500.368948  7  5  4  78       
*  2012 10 21 15 15  0.00000000
PG01  13815.346315 -10772.265043  19926.850352    278.786090  6  5  5 113       
PG02 -13942.988479 -13042.905416 -18512.729166    406.598734  6  4  6 106       
PG03  24945.841254   9451.591164    462.849953    117.583479  4  6  3 106       
PG04  -6963.240301 -23900.091658  -9085.485888     22.757491  6  4  6 105       
PG05 -20433.139786  -1952.815437 -16956.471016   -361.080047  5  5  4 114       
PG06  22737.837851  13671.126857  -3202.453711    478.970685  5  6  3  98       
PG07   7132.951926 -23246.426191 -10300.333083    136.067386  8  9  4 100       
PG08    713.103699 -26094.569389   2678.344324      2.489987  5  4  4  95       
PG09 -14002.971841   5924.809282  21239.638156    193.978814  5  5  5 113       
PG10  -4976.227672 -15062.242678 -21536.719598    -55.943159  5  5  5 144       
PG11  15921.815312  -4518.003825  20357.351271   -315.076927  5  5  4 102       
PG12 -23761.511918  11386.456067   2370.825832     97.367826  7  6  4 129       
PG13   8228.029692 -12268.228381 -22204.608237    172.837620  8  8  6 102       
PG14   9212.714467  19153.486491  16217.645788    215.272285  5  5  7  99       
PG15 -23182.963598  -1582.013994  13065.687121    -97.799557  6  6  6 104       
PG16  20230.464182   2263.137162 -17236.128288   -248.309964  3  7  4 106       
PG17  -9993.717682 -19081.248817  15885.431045     85.883537  6  5  7  93       
PG18 -11374.323942  19205.895866  14506.576176    220.766696  6  5  4 124       
PG19  23210.113048   5964.488329  11802.159915   -314.949522  4  3  5 116       
PG20  22344.530109 -14266.909876    507.899772     71.127401  7  6  6 117       
PG21  -4597.097611  24915.488792  -6429.017578   -257.275834  6  7  5 101       
PG22   2481.734805  16585.760061  20762.670269    149.779832  6  5  5 116       
PG23  19049.769526  -3755.453755 -18231.168621    152.096425  8  8  5 109       
PG24  12924.198939 -14055.593501 -18800.160851      1.983101 13 15  9 138       
PG25 -17382.064757  17829.525173  -9188.996381     47.461965  2  8  6 105       
PG26 -22866.918247 -13460.410249   2773.757681   -238.396596  5  6  7 100       
PG27   7764.046723  12787.579613 -22085.490416 999999.999999
PG28   1962.989717 -16851.540591  20943.900525    197.121381  4  5  2 100       
PG29 -10575.397201  11097.547365 -21637.483269    368.551468  6  7  8 116       
PG30  11777.236064  10246.850976 -21845.488083   -354.573439  5  7  2  86       
PG31   7644.003797  22311.993583 -11771.563343    282.043131  6  7  7  47       
PG32  24391.597020  -4709.764584   8831.038727   -500.372332  7  5  4  99       
*  2012 10 21 15 30  0.00000000
PG01  14010.637708  -8437.387386  20896.467470    278.787677  6  5  5 101       
PG02 -13915.175915 -15095.381686 -16966.040933    406.599723  5  3  6 111       
PG03  24789.415034   9731.754163  -2318.334585    117.587754  5  6  3 108       
PG04  -6686.132110 -24780.613658  -6452.068159     22.767377  6  4  6  93       
PG05 -18809.380598  -3174.538554 -18563.556857   -361.082596  5  6  3 122       
PG06  22136.491053  13716.486975  -5931.172503    478.961491  5  7  4 104       
PG07   7367.413556 -21920.083681 -12767.218042    136.071442  8  9  4 109       
PG08    912.459536 -26211.571529   -282.638339      2.489390  4  5  3 114       
PG09 -14162.595209   3361.948357  21672.928125    193.981689  4  5  5 116       
PG10  -2901.435194 -16248.210426 -21004.919334    -55.943104  5  6  5 147       
PG11  16678.344319  -2204.727873  20164.182579   -315.080448  6  4  4  89       
PG12 -23491.514825  10983.528070   5235.431869     97.369450  7  6  4 128       
PG13  10319.074857 -10904.267066 -22051.228620    172.835280  8  8  6 107       
PG14   7514.169838  18256.873132  18034.559391    215.272812  5  6  7 109       
PG15 -24297.610517  -2393.676609  10727.859041    -97.800242  5  5  6  96       
PG16  18499.970812   3367.193592 -18892.287014   -248.310572  2  6  4 121       
PG17  -8289.218404 -18272.881778  17710.610064     85.880364  6  5  7  85       
PG18 -12793.269111  19766.401017  12320.681058    220.768538  6  6  5 123       
PG19  24119.060755   6782.152987   9325.609189   -314.952588  5  3  5 114       
PG20  22353.013946 -13845.429445   3293.160924     71.128075  6  6  6 111       
PG21  -5001.184411  23964.838110  -9059.056580   -257.278018  6  7  5 104       
PG22    470.069323  17717.576467  19935.531859    149.780292  6  6  4 111       
PG23  20734.807099  -2692.295945 -16540.487401    152.092938  7  8  5 103       
PG24  13143.343408 -11878.577509 -20104.123934      1.984049 13 15  8 132       
PG25 -18249.345671  18134.476972  -6501.544019     47.463426  1  7  6  97       
PG26 -22959.042625 -13723.914597    -96.503040   -238.384528  5  6  7  95       
PG27   5649.701536  14091.717985 -21917.500459 999999.999999
PG28   3931.534297 -17873.441388  19733.957063    197.124434  4  6  2 110       
PG29 -12675.969539   9823.607763 -21116.242033    368.555000  6  7  8 109       
PG30   9876.460066  11765.871412 -22026.518943   -354.556807  4  7  2 118       
PG31   7476.570843  23547.580745  -9216.569872    282.045628  6  7  6  86       
PG32  23502.895484  -3929.134720  11362.180359   -500.375721  7  5  3  88       
EOF
